[{"OBJECT_NAME":"STARLINK-3628","OBJECT_ID":"2022-017R","EPOCH":"2026-03-09T21:59:21.071904","MEAN_MOTION":15.08833646,"ECCENTRICITY":0.00015326,"INCLINATION":53.2201,"RA_OF_ASC_NODE":338.1594,"ARG_OF_PERICENTER":112.9862,"MEAN_ANOMALY":247.1292,"EPHEMERIS_TYPE":0,"CLASSIFICATION_TYPE":"U","NORAD_CAT_ID":51783,"ELEMENT_SET_NO":999,"REV_AT_EPOCH":22245,"BSTAR":1.1184792e-5,"MEAN_MOTION_DOT":-1.1e-6,"MEAN_MOTION_DDOT":0},{"OBJECT_NAME":"FENGYUN 1C DEB","OBJECT_ID":"1999-025BNW","EPOCH":"2026-03-06T10:01:07.743936","MEAN_MOTION":15.11996262,"ECCENTRICITY":0.00143439,"INCLINATION":98.7438,"RA_OF_ASC_NODE":239.2093,"ARG_OF_PERICENTER":346.0612,"MEAN_ANOMALY":44.2284,"EPHEMERIS_TYPE":0,"CLASSIFICATION_TYPE":"U","NORAD_CAT_ID":31288,"ELEMENT_SET_NO":999,"REV_AT_EPOCH":98814,"BSTAR":0.0072973407,"MEAN_MOTION_DOT":0.00127645,"MEAN_MOTION_DDOT":0}]
